<?xml version="1.0" encoding="utf-8" ?>
<kml xmlns="http://www.opengis.net/kml/2.2">
<Document id="root_doc">
<Folder><name>study_area</name>
  <Placemark id="study_area.1">
	<Style><LineStyle><color>ff0000ff</color></LineStyle><PolyStyle><fill>0</fill></PolyStyle></Style>
      <MultiGeometry><Polygon><outerBoundaryIs><LinearRing><coordinates>28.016912957,-26.0769372609999 28.016790644,-26.0770307139999 28.016690125,-26.077109397 28.0163035690001,-26.0774123309999 28.016011475,-26.0776412229999 28.0157998080001,-26.077806503 28.0155854180001,-26.077973912 28.0155848040001,-26.0779743859999 28.015231347,-26.0782504219999 28.0152296960001,-26.078249445 28.015031283,-26.078130544 28.015026838,-26.078127879 28.0145052,-26.0778152459999 28.0145004240001,-26.077812368 28.013675333,-26.077319705 28.013386617,-26.077147426 28.0134989110001,-26.077073621 28.0136779790001,-26.0769449709999 28.014227055,-26.0765455059999 28.014322813,-26.076482015 28.01440595,-26.0764223199999 28.0147731560001,-26.0761598999999 28.014831249,-26.0761168929999 28.0152241000001,-26.075831652 28.015394873,-26.07570938 28.0158355460001,-26.075393861 28.01589417,-26.0753519049999 28.015833893,-26.0753142739999 28.015635746,-26.07518607 28.0150016580001,-26.074795315 28.0131231880001,-26.0736239779999 28.01338981,-26.0732755389999 28.013699704,-26.072867206 28.0141574830001,-26.072270435 28.0147686760001,-26.0714736589999 28.01588503,-26.069998617 28.0170440580001,-26.068632857 28.0173531560001,-26.068277241 28.017460031,-26.0681505849999 28.017620918,-26.068531376 28.0179177050001,-26.069233873 28.0179512400001,-26.069313249 28.01805145,-26.0695504669999 28.018058555,-26.069567137 28.01830733,-26.0701559629999 28.0184225030001,-26.070419377 28.018649704,-26.070938858 28.018654363,-26.070949486 28.018655294,-26.0709516219999 28.018657213,-26.0709563999999 28.018664458,-26.070974382 28.01881272,-26.0713439669999 28.0193289420001,-26.0725654519999 28.0195282,-26.073036944 28.019592195,-26.0731883899999 28.019796619,-26.073672092 28.0199555720001,-26.0740481559999 28.0199698210001,-26.0740818629999 28.0199823290001,-26.074111172 28.020122776,-26.074443806 28.020404698,-26.075110868 28.020421185,-26.075149369 28.0204355920001,-26.0751834929999 28.020449999,-26.075217616 28.0205898560001,-26.075548531 28.020725691,-26.0758701519999 28.0207359290001,-26.075894583 28.0209928460001,-26.0765035859999 28.021053179,-26.0766465849999 28.0210712800001,-26.0766894439999 28.021138168,-26.0768480209999 28.0209033030001,-26.077286275 28.0207994830001,-26.077479975 28.020795981,-26.0774865129999 28.0204309380001,-26.078167728 28.0204219240001,-26.078184484 28.0204196670001,-26.0781830659999 28.019965191,-26.07789903 28.0197085040001,-26.0777387379999 28.019573135,-26.0776589219999 28.0195567000001,-26.07764865 28.019538654,-26.077637371 28.019366002,-26.077529462 28.0191864110001,-26.0774171039999 28.019185071,-26.077416266 28.0189907590001,-26.0772949289999 28.0187970100001,-26.077173699 28.0184123500001,-26.076928836 28.018280002,-26.0768489919999 28.018021386,-26.076687927 28.0175818120001,-26.076414159 28.017227044,-26.076691991 28.016912957,-26.0769372609999</coordinates></LinearRing></outerBoundaryIs></Polygon></MultiGeometry>
  </Placemark>
</Folder>
</Document></kml>
